{
  "links" : {
    "next" : "https://api.nasa.gov/neo/rest/v1/feed?start_date=2013-11-16&end_date=2013-11-16&detailed=true&api_key=t0TVs3DtDT2H8Oy2Zy8m2eVrNsAVKAexjcZXUckd",
    "prev" : "https://api.nasa.gov/neo/rest/v1/feed?start_date=2013-11-14&end_date=2013-11-14&detailed=true&api_key=t0TVs3DtDT2H8Oy2Zy8m2eVrNsAVKAexjcZXUckd",
    "self" : "https://api.nasa.gov/neo/rest/v1/feed?start_date=2013-11-15&end_date=2013-11-15&detailed=true&api_key=t0TVs3DtDT2H8Oy2Zy8m2eVrNsAVKAexjcZXUckd"
  },
  "element_count" : 6,
  "near_earth_objects" : {
    "2013-11-15" : [ {
      "links" : {
        "self" : "https://api.nasa.gov/neo/rest/v1/neo/2279744?api_key=t0TVs3DtDT2H8Oy2Zy8m2eVrNsAVKAexjcZXUckd"
      },
      "neo_reference_id" : "2279744",
      "name" : "279744 (1998 KM3)",
      "nasa_jpl_url" : "http://ssd.jpl.nasa.gov/sbdb.cgi?sstr=2279744",
      "absolute_magnitude_h" : 19.8,
      "estimated_diameter" : {
        "kilometers" : {
          "estimated_diameter_min" : 0.2914439045,
          "estimated_diameter_max" : 0.6516883822
        },
        "meters" : {
          "estimated_diameter_min" : 291.4439045349,
          "estimated_diameter_max" : 651.6883821679
        },
        "miles" : {
          "estimated_diameter_min" : 0.1810947904,
          "estimated_diameter_max" : 0.4049402617
        },
        "feet" : {
          "estimated_diameter_min" : 956.1808197541,
          "estimated_diameter_max" : 2138.0853117517
        }
      },
      "is_potentially_hazardous_asteroid" : true,
      "close_approach_data" : [ {
        "close_approach_date" : "2013-11-15",
        "epoch_date_close_approach" : 1384502400000,
        "relative_velocity" : {
          "kilometers_per_second" : "12.534480872",
          "kilometers_per_hour" : "45124.1311392216",
          "miles_per_hour" : "28038.3802625902"
        },
        "miss_distance" : {
          "astronomical" : "0.2030443671",
          "lunar" : "78.9842605591",
          "kilometers" : "30375006",
          "miles" : "18874154"
        },
        "orbiting_body" : "Earth"
      } ],
      "orbital_data" : {
        "orbit_id" : "39",
        "orbit_determination_date" : "2017-04-06 09:24:22",
        "orbit_uncertainty" : "0",
        "minimum_orbit_intersection" : ".00250782",
        "jupiter_tisserand_invariant" : "4.007",
        "epoch_osculation" : "2458000.5",
        "eccentricity" : ".6110135400230555",
        "semi_major_axis" : "1.671874346544626",
        "inclination" : "4.660296203981773",
        "ascending_node_longitude" : "263.1251787028541",
        "orbital_period" : "789.5940695710819",
        "perihelion_distance" : ".6503364835886614",
        "perihelion_argument" : "85.21931655282948",
        "aphelion_distance" : "2.693412209500591",
        "perihelion_time" : "2458150.403314590845",
        "mean_anomaly" : "291.6545104220214",
        "mean_motion" : ".4559304760173247",
        "equinox" : "J2000"
      }
    }, {
      "links" : {
        "self" : "https://api.nasa.gov/neo/rest/v1/neo/3399919?api_key=t0TVs3DtDT2H8Oy2Zy8m2eVrNsAVKAexjcZXUckd"
      },
      "neo_reference_id" : "3399919",
      "name" : "(2008 AJ33)",
      "nasa_jpl_url" : "http://ssd.jpl.nasa.gov/sbdb.cgi?sstr=3399919",
      "absolute_magnitude_h" : 20.1,
      "estimated_diameter" : {
        "kilometers" : {
          "estimated_diameter_min" : 0.2538370294,
          "estimated_diameter_max" : 0.5675968529
        },
        "meters" : {
          "estimated_diameter_min" : 253.8370293645,
          "estimated_diameter_max" : 567.5968528656
        },
        "miles" : {
          "estimated_diameter_min" : 0.1577269688,
          "estimated_diameter_max" : 0.3526882241
        },
        "feet" : {
          "estimated_diameter_min" : 832.7986794202,
          "estimated_diameter_max" : 1862.1944587557
        }
      },
      "is_potentially_hazardous_asteroid" : false,
      "close_approach_data" : [ {
        "close_approach_date" : "2013-11-15",
        "epoch_date_close_approach" : 1384502400000,
        "relative_velocity" : {
          "kilometers_per_second" : "7.4268432908",
          "kilometers_per_hour" : "26736.6358468449",
          "miles_per_hour" : "16613.1057571687"
        },
        "miss_distance" : {
          "astronomical" : "0.2305432714",
          "lunar" : "89.6813354492",
          "kilometers" : "34488784",
          "miles" : "21430336"
        },
        "orbiting_body" : "Earth"
      } ],
      "orbital_data" : {
        "orbit_id" : "27",
        "orbit_determination_date" : "2017-04-06 09:04:46",
        "orbit_uncertainty" : "0",
        "minimum_orbit_intersection" : ".192197",
        "jupiter_tisserand_invariant" : "2.762",
        "epoch_osculation" : "2458000.5",
        "eccentricity" : ".6576223188759626",
        "semi_major_axis" : "3.273069433519491",
        "inclination" : "11.13436119925852",
        "ascending_node_longitude" : "98.18613129429509",
        "orbital_period" : "2162.874171293603",
        "perihelion_distance" : "1.12062592280637",
        "perihelion_argument" : "308.9097345282412",
        "aphelion_distance" : "5.425512944232612",
        "perihelion_time" : "2458763.201917939973",
        "mean_anomaly" : "233.0519351968728",
        "mean_motion" : ".1664451888963499",
        "equinox" : "J2000"
      }
    }, {
      "links" : {
        "self" : "https://api.nasa.gov/neo/rest/v1/neo/3478250?api_key=t0TVs3DtDT2H8Oy2Zy8m2eVrNsAVKAexjcZXUckd"
      },
      "neo_reference_id" : "3478250",
      "name" : "(2009 WR25)",
      "nasa_jpl_url" : "http://ssd.jpl.nasa.gov/sbdb.cgi?sstr=3478250",
      "absolute_magnitude_h" : 21.6,
      "estimated_diameter" : {
        "kilometers" : {
          "estimated_diameter_min" : 0.1272198785,
          "estimated_diameter_max" : 0.2844722965
        },
        "meters" : {
          "estimated_diameter_min" : 127.2198785394,
          "estimated_diameter_max" : 284.4722965033
        },
        "miles" : {
          "estimated_diameter_min" : 0.0790507431,
          "estimated_diameter_max" : 0.1767628354
        },
        "feet" : {
          "estimated_diameter_min" : 417.3880663071,
          "estimated_diameter_max" : 933.3080892598
        }
      },
      "is_potentially_hazardous_asteroid" : false,
      "close_approach_data" : [ {
        "close_approach_date" : "2013-11-15",
        "epoch_date_close_approach" : 1384502400000,
        "relative_velocity" : {
          "kilometers_per_second" : "23.300262093",
          "kilometers_per_hour" : "83880.9435348544",
          "miles_per_hour" : "52120.3562758655"
        },
        "miss_distance" : {
          "astronomical" : "0.1911536948",
          "lunar" : "74.3587875366",
          "kilometers" : "28596186",
          "miles" : "17768846"
        },
        "orbiting_body" : "Earth"
      } ],
      "orbital_data" : {
        "orbit_id" : "17",
        "orbit_determination_date" : "2017-04-06 08:59:02",
        "orbit_uncertainty" : "1",
        "minimum_orbit_intersection" : ".104712",
        "jupiter_tisserand_invariant" : "6.607",
        "epoch_osculation" : "2458000.5",
        "eccentricity" : ".4809341933683454",
        "semi_major_axis" : ".867466178101473",
        "inclination" : "31.72079329051928",
        "ascending_node_longitude" : "238.2357306742381",
        "orbital_period" : "295.1054657573841",
        "perihelion_distance" : ".4502720314619196",
        "perihelion_argument" : "31.33259807242616",
        "aphelion_distance" : "1.284660324741026",
        "perihelion_time" : "2458020.332489362072",
        "mean_anomaly" : "335.8062896191302",
        "mean_motion" : "1.219902854310289",
        "equinox" : "J2000"
      }
    } ]
  }
}